INTELSAT 902 (IS-902)   
1 26900U 01039A   26182.50330962 -.00000277  00000+0  00000+0 0  9992
2 26900   6.1523  71.6085 0004276  27.0013 312.0253  1.00272416 90834
INTELSAT 904 (IS-904)   
1 27380U 02007A   26182.43579384 -.00000219  00000+0  00000+0 0  9992
2 27380   6.9534  69.0143 0006343  15.1246 320.7588  1.00271894 51907
DIRECTV 5 (TEMPO 1)     
1 27426U 02023A   26182.56030187 -.00000050  00000+0  00000+0 0  9991
2 27426   4.9124  75.1357 0003552  33.1740 262.9059  1.00271763 88268
INTELSAT 905 (IS-905)   
1 27438U 02027A   26182.57128800  .00000100  00000+0  00000+0 0  9994
2 27438   6.7875  69.6281 0004043  31.6603 246.7931  1.00272223 51503
GALAXY 3C (G-3C)        
1 27445U 02030A   26182.55484317 -.00000145  00000+0  00000+0 0  9992
2 27445   3.7679  77.7949 0001945  28.1791 278.5502  1.00272276 46631
INTELSAT 906 (IS-906)   
1 27513U 02041A   26182.45690172  .00000019  00000+0  00000+0 0  9996
2 27513   5.8378  72.7457 0004119  12.0704  63.3300  1.00273103 87177
GALAXY 13 (HORIZONS-1)  
1 27954U 03044A   26182.57655514  .00000142  00000+0  00000+0 0  9990
2 27954   1.4557  83.6807 0001689  11.8724 241.6056  1.00271822 46715
INTELSAT 10-02          
1 28358U 04022A   26182.37043807 -.00000001  00000+0  00000+0 0  9995
2 28358   0.0379 270.4809 0000179 221.8836 279.4180  1.00270327 80690
DIRECTV 8               
1 28659U 05019A   26182.60969528  .00000000  00000+0  00000+0 0  9997
2 28659   0.0197  21.3943 0003347  88.4861 270.2290  1.00270607 77215
GALAXY 28 (G-28)        
1 28702U 05022A   26182.43657384 -.00000191  00000+0  00000+0 0  9997
2 28702   3.3336  78.7613 0002716  22.8279 307.9758  1.00280015 52112
GALAXY 16 (G-16)        
1 29236U 06023A   26182.55630177 -.00000116  00000+0  00000+0 0  9993
2 29236   0.0085 100.0749 0002747 355.2526 285.5514  1.00271082 73119
DIRECTV 9S              
1 29494U 06043A   26182.55760978 -.00000105  00000+0  00000+0 0  9992
2 29494   2.4559  80.7386 0005416  22.7265 275.6867  1.00271985 51524
GALAXY 17 (G-17)        
1 31307U 07016B   26182.49646292 -.00000198  00000+0  00000+0 0  9996
2 31307   3.0060  79.7288 0004048  19.9045 273.6334  1.00271427 69940
INTELSAT 11 (IS-11)     
1 32253U 07044B   26182.45442725  .00000093  00000+0  00000+0 0  9992
2 32253   3.6005  78.5042 0003401  87.7113 339.9250  0.99047847 68599
HORIZONS-2              
1 32388U 07063B   26182.49862959 -.00000244  00000+0  00000+0 0  9990
2 32388   2.6370  80.4595 0004096  11.6607 293.1153  1.00269698 67957
DIRECTV 11              
1 32729U 08013A   26182.55629799 -.00000116  00000+0  00000+0 0  9993
2 32729   0.0211 247.8025 0000599 226.4277 266.4689  1.00277613 45737
GALAXY 18 (G-18)        
1 32951U 08024A   26182.56600832  .00000036  00000+0  00000+0 0  9990
2 32951   0.0174  39.1683 0003206  65.6079 255.6024  1.00271966 45991
GALAXY 19 (G-19)        
1 33376U 08045A   26182.54372622 -.00000129  00000+0  00000+0 0  9990
2 33376   0.0523 251.7939 0002942 222.7906 263.7499  1.00271734 65045
FM-5                    
1 35493U 09034A   26182.49620292 -.00000189  00000+0  00000+0 0  9990
2 35493   0.0336 278.6797 0000834  69.8527  23.4820  1.00270047 46781
INTELSAT 14 (IS-14)     
1 36097U 09064A   26182.43302050 -.00000263  00000+0  00000+0 0  9990
2 36097   0.0254 291.7279 0002743 171.1718 287.4705  1.00270081 60746
INTELSAT 15 (IS-15)     
1 36106U 09067A   26182.60142274 -.00000175  00000+0  00000+0 0  9995
2 36106   0.0117 326.5672 0002564 132.7051 122.0320  1.00272593 41378
DIRECTV 12              
1 36131U 09075A   26182.55768725 -.00000092  00000+0  00000+0 0  9999
2 36131   0.0084 110.9434 0000238 301.2986 325.4089  1.00265742 46695
INTELSAT 16 (IS-16)     
1 36397U 10006A   26182.49819626 -.00000234  00000+0  00000+0 0  9997
2 36397   0.0104  32.3764 0002479  83.3841 266.9399  1.00272944 59792
XM-5                    
1 37185U 10053A   26182.56254231 -.00000012  00000+0  00000+0 0  9992
2 37185   0.0677 268.5890 0002653 286.0601 172.2777  1.00270432 57625
INTELSAT 17 (IS-17)     
1 37238U 10065B   26182.52636304  .00000000  00000+0  00000+0 0  9991
2 37238   0.0285  83.7593 0002671  35.2638  56.0232  1.00270576 53394
INTELSAT 28 (IS-28)     
1 37392U 11016A   26182.44966378 -.00000216  00000+0  00000+0 0  9997
2 37392   1.8411  82.4587 0004011  17.6487 309.5288  1.00270276 53428
INTELSAT 18 (IS-18)     
1 37834U 11056A   26182.58903510  .00000063  00000+0  00000+0 0  9995
2 37834   0.0140 310.9930 0002105 151.9758 208.7198  1.00271833 53953
INTELSAT 22 (IS-22)     
1 38098U 12011A   26182.52757638 -.00000048  00000+0  00000+0 0  9996
2 38098   0.0145  44.8533 0001697  51.8086  84.9369  1.00271300  7334
INTELSAT 19 (IS-19)     
1 38356U 12030A   26182.59390903 -.00000046  00000+0  00000+0 0  9997
2 38356   0.0187   4.2182 0003406 105.2348 189.9989  1.00271598 50591
INTELSAT 20 (IS-20)     
1 38740U 12043A   26182.24061653 -.00000014  00000+0  00000+0 0  9992
2 38740   0.0058  49.1526 0001542 129.2534 256.0073  1.00274019 50880
INTELSAT 21 (IS-21)     
1 38749U 12045A   26182.50174961 -.00000274  00000+0  00000+0 0  9997
2 38749   0.0314 278.2319 0001926 192.5092 291.4432  1.00273277 50660
